{
  "type": "FeatureCollection",
  "features": [
    {
      "type": "Feature",
      "properties": {
        "norad_id": 66174,
        "name": "HTV-X1",
        "group": "stations",
        "lat": 51.604391450815754,
        "lon": -137.2300456601867,
        "alt_km": 412.84189973291905,
        "timestamp": "2025-12-14T22:38:39.540629+00:00",
        "meta_object_name": "HTV-X1",
        "meta_object_id": "2025-241A",
        "meta_epoch": "2025-12-14T05:13:44.174496",
        "meta_mean_motion": 15.49586484,
        "meta_eccentricity": 0.00032642,
        "meta_inclination": 51.6305,
        "meta_ra_of_asc_node": 135.1599,
        "meta_arg_of_pericenter": 246.9077,
        "meta_mean_anomaly": 113.1568,
        "meta_ephemeris_type": 0,
        "meta_classification_type": "U",
        "meta_norad_cat_id": 66174,
        "meta_element_set_no": 999,
        "meta_rev_at_epoch": 51,
        "meta_bstar": 0.00022198491,
        "meta_mean_motion_dot": 0.00012052,
        "meta_mean_motion_ddot": 0,
        "tle_line1": "1 66174U 25241A   25348.21787239  .00012052  00000+0  22198-3 0  9993",
        "tle_line2": "2 66174  51.6305 135.1599 0003264 246.9077 113.1568 15.49586484   514"
      },
      "geometry": {
        "type": "Point",
        "coordinates": [
          -137.2300456601867,
          51.604391450815754
        ]
      }
    },
    {
      "type": "Feature",
      "properties": {
        "norad_id": 66515,
        "name": "SZ-21 MODULE",
        "group": "stations",
        "lat": -26.39906992223758,
        "lon": -143.21208683565578,
        "alt_km": 379.73086716690796,
        "timestamp": "2025-12-14T22:38:39.540640+00:00",
        "meta_object_name": "SZ-21 MODULE",
        "meta_object_id": "2025-246C",
        "meta_epoch": "2025-12-14T06:21:31.494240",
        "meta_mean_motion": 15.62581213,
        "meta_eccentricity": 0.00062526,
        "meta_inclination": 41.4775,
        "meta_ra_of_asc_node": 6.7415,
        "meta_arg_of_pericenter": 268.458,
        "meta_mean_anomaly": 91.5544,
        "meta_ephemeris_type": 0,
        "meta_classification_type": "U",
        "meta_norad_cat_id": 66515,
        "meta_element_set_no": 999,
        "meta_rev_at_epoch": 468,
        "meta_bstar": 0.00032565972,
        "meta_mean_motion_dot": 0.0002972,
        "meta_mean_motion_ddot": 0,
        "tle_line1": "1 66515U 25246C   25348.26494785  .00029720  00000+0  32566-3 0  9993",
        "tle_line2": "2 66515  41.4775   6.7415 0006252 268.4580  91.5544 15.62581213  4684"
      },
      "geometry": {
        "type": "Point",
        "coordinates": [
          -143.21208683565578,
          -26.39906992223758
        ]
      }
    },
    {
      "type": "Feature",
      "properties": {
        "norad_id": 66645,
        "name": "SHENZHOU-22",
        "group": "stations",
        "lat": -39.18807050156515,
        "lon": -64.0623500669882,
        "alt_km": 395.5648344118017,
        "timestamp": "2025-12-14T22:38:39.540649+00:00",
        "meta_object_name": "SHENZHOU-22",
        "meta_object_id": "2025-272A",
        "meta_epoch": "2025-12-14T07:34:58.944000",
        "meta_mean_motion": 15.59258965,
        "meta_eccentricity": 0.00080649,
        "meta_inclination": 41.4685,
        "meta_ra_of_asc_node": 7.139,
        "meta_arg_of_pericenter": 44.1445,
        "meta_mean_anomaly": 316.0035,
        "meta_ephemeris_type": 0,
        "meta_classification_type": "U",
        "meta_norad_cat_id": 66645,
        "meta_element_set_no": 999,
        "meta_rev_at_epoch": 26357,
        "meta_bstar": 0.00032167744,
        "meta_mean_motion_dot": 0.00025793,
        "meta_mean_motion_ddot": 0,
        "tle_line1": "1 66645U 25272A   25348.31596000  .00025793  00000+0  32168-3 0  9999",
        "tle_line2": "2 66645  41.4685   7.1390 0008064  44.1445 316.0035 15.59258965263573"
      },
      "geometry": {
        "type": "Point",
        "coordinates": [
          -64.0623500669882,
          -39.18807050156515
        ]
      }
    },
    {
      "type": "Feature",
      "properties": {
        "norad_id": 66664,
        "name": "SOYUZ-MS 28",
        "group": "stations",
        "lat": 51.60439141883248,
        "lon": -137.2300425385073,
        "alt_km": 412.8418997102108,
        "timestamp": "2025-12-14T22:38:39.540659+00:00",
        "meta_object_name": "SOYUZ-MS 28",
        "meta_object_id": "2025-275A",
        "meta_epoch": "2025-12-14T05:13:44.174496",
        "meta_mean_motion": 15.49586484,
        "meta_eccentricity": 0.00032642,
        "meta_inclination": 51.6305,
        "meta_ra_of_asc_node": 135.1599,
        "meta_arg_of_pericenter": 246.9077,
        "meta_mean_anomaly": 113.1568,
        "meta_ephemeris_type": 0,
        "meta_classification_type": "U",
        "meta_norad_cat_id": 66664,
        "meta_element_set_no": 999,
        "meta_rev_at_epoch": 128,
        "meta_bstar": 0.00022198491,
        "meta_mean_motion_dot": 0.00012052,
        "meta_mean_motion_ddot": 0,
        "tle_line1": "1 66664U 25275A   25348.21787239  .00012052  00000+0  22198-3 0  9994",
        "tle_line2": "2 66664  51.6305 135.1599 0003264 246.9077 113.1568 15.49586484  1283"
      },
      "geometry": {
        "type": "Point",
        "coordinates": [
          -137.2300425385073,
          51.60439141883248
        ]
      }
    },
    {
      "type": "Feature",
      "properties": {
        "norad_id": 66906,
        "name": "1998-067XS",
        "group": "stations",
        "lat": 37.67866709959851,
        "lon": -86.23964620307115,
        "alt_km": 409.3684691890294,
        "timestamp": "2025-12-14T22:38:39.540671+00:00",
        "meta_object_name": "1998-067XS",
        "meta_object_id": "1998-067XS",
        "meta_epoch": "2025-12-14T03:31:53.110272",
        "meta_mean_motion": 15.5066238,
        "meta_eccentricity": 0.00034792,
        "meta_inclination": 51.6304,
        "meta_ra_of_asc_node": 135.4381,
        "meta_arg_of_pericenter": 209.6903,
        "meta_mean_anomaly": 150.3889,
        "meta_ephemeris_type": 0,
        "meta_classification_type": "U",
        "meta_norad_cat_id": 66906,
        "meta_element_set_no": 999,
        "meta_rev_at_epoch": 183,
        "meta_bstar": 0.00050586866,
        "meta_mean_motion_dot": 0.0002921,
        "meta_mean_motion_ddot": 0,
        "tle_line1": "1 66906U 98067XS  25348.14714248  .00029210  00000+0  50587-3 0  9991",
        "tle_line2": "2 66906  51.6304 135.4381 0003479 209.6903 150.3889 15.50662380  1837"
      },
      "geometry": {
        "type": "Point",
        "coordinates": [
          -86.23964620307115,
          37.67866709959851
        ]
      }
    },
    {
      "type": "Feature",
      "properties": {
        "norad_id": 66907,
        "name": "1998-067XT",
        "group": "stations",
        "lat": 21.778846375343065,
        "lon": -67.01632144040393,
        "alt_km": 408.8824441465031,
        "timestamp": "2025-12-14T22:38:39.540681+00:00",
        "meta_object_name": "1998-067XT",
        "meta_object_id": "1998-067XT",
        "meta_epoch": "2025-12-14T03:26:43.609056",
        "meta_mean_motion": 15.5166553,
        "meta_eccentricity": 0.0004243,
        "meta_inclination": 51.6301,
        "meta_ra_of_asc_node": 135.4146,
        "meta_arg_of_pericenter": 234.9835,
        "meta_mean_anomaly": 125.0757,
        "meta_ephemeris_type": 0,
        "meta_classification_type": "U",
        "meta_norad_cat_id": 66907,
        "meta_element_set_no": 999,
        "meta_rev_at_epoch": 183,
        "meta_bstar": 0.0011319513,
        "meta_mean_motion_dot": 0.00068696,
        "meta_mean_motion_ddot": 0,
        "tle_line1": "1 66907U 98067XT  25348.14356029  .00068696  00000+0  11320-2 0  9993",
        "tle_line2": "2 66907  51.6301 135.4146 0004243 234.9835 125.0757 15.51665530  1833"
      },
      "geometry": {
        "type": "Point",
        "coordinates": [
          -67.01632144040393,
          21.778846375343065
        ]
      }
    },
    {
      "type": "Feature",
      "properties": {
        "norad_id": 66908,
        "name": "1998-067XU",
        "group": "stations",
        "lat": 19.873276378523386,
        "lon": -65.2091919037716,
        "alt_km": 408.73271601476335,
        "timestamp": "2025-12-14T22:38:39.540691+00:00",
        "meta_object_name": "1998-067XU",
        "meta_object_id": "1998-067XU",
        "meta_epoch": "2025-12-14T03:26:08.586816",
        "meta_mean_motion": 15.51757064,
        "meta_eccentricity": 0.00043369,
        "meta_inclination": 51.6297,
        "meta_ra_of_asc_node": 135.4117,
        "meta_arg_of_pericenter": 234.6858,
        "meta_mean_anomaly": 125.3727,
        "meta_ephemeris_type": 0,
        "meta_classification_type": "U",
        "meta_norad_cat_id": 66908,
        "meta_element_set_no": 999,
        "meta_rev_at_epoch": 183,
        "meta_bstar": 0.0012622899,
        "meta_mean_motion_dot": 0.00076995,
        "meta_mean_motion_ddot": 0,
        "tle_line1": "1 66908U 98067XU  25348.14315494  .00076995  00000+0  12623-2 0  9993",
        "tle_line2": "2 66908  51.6297 135.4117 0004336 234.6858 125.3727 15.51757064  1835"
      },
      "geometry": {
        "type": "Point",
        "coordinates": [
          -65.2091919037716,
          19.873276378523386
        ]
      }
    }
  ]
}